{
    "links": {
        "self": "http://www.neowsapp.com/rest/v1/neo/3719204?api_key=iIulBulltgU6a56xZRHN4H3l9WmuAYTsLGpBGhQ2"
    },
    "id": "3719204",
    "neo_reference_id": "3719204",
    "name": "(2015 JZ1)",
    "designation": "2015 JZ1",
    "nasa_jpl_url": "http://ssd.jpl.nasa.gov/sbdb.cgi?sstr=3719204",
    "absolute_magnitude_h": 23.5,
    "estimated_diameter": {
        "kilometers": {
            "estimated_diameter_min": 0.0530340723,
            "estimated_diameter_max": 0.1185877909
        },
        "meters": {
            "estimated_diameter_min": 53.0340723319,
            "estimated_diameter_max": 118.5877908577
        },
        "miles": {
            "estimated_diameter_min": 0.0329538346,
            "estimated_diameter_max": 0.0736870142
        },
        "feet": {
            "estimated_diameter_min": 173.9963058693,
            "estimated_diameter_max": 389.0675677576
        }
    },
    "is_potentially_hazardous_asteroid": false,
    "close_approach_data": [
        {
            "close_approach_date": "2015-05-30",
            "close_approach_date_full": "2015-May-30 06:41",
            "epoch_date_close_approach": 1432968060000,
            "relative_velocity": {
                "kilometers_per_second": "17.4064653472",
                "kilometers_per_hour": "62663.2752500215",
                "miles_per_hour": "38936.5223352148"
            },
            "miss_distance": {
                "astronomical": "0.0444171526",
                "lunar": "17.2782723614",
                "kilometers": "6644711.420424962",
                "miles": "4128832.2201579956"
            },
            "orbiting_body": "Earth"
        }
    ],
    "orbital_data": {
        "orbit_id": "9",
        "orbit_determination_date": "2017-04-06 08:33:46",
        "first_observation_date": "2015-05-14",
        "last_observation_date": "2015-05-29",
        "data_arc_in_days": 15,
        "observations_used": 37,
        "orbit_uncertainty": "8",
        "minimum_orbit_intersection": ".0188751",
        "jupiter_tisserand_invariant": "3.174",
        "epoch_osculation": "2457158.5",
        "eccentricity": ".6905581453501068",
        "semi_major_axis": "2.356921705098366",
        "inclination": "7.019183661889385",
        "ascending_node_longitude": "253.7069222999316",
        "orbital_period": "1321.649088213856",
        "perihelion_distance": ".7293302236902269",
        "perihelion_argument": "62.70036860000425",
        "aphelion_distance": "3.984513186506506",
        "perihelion_time": "2457215.674305041021",
        "mean_anomaly": "344.426463878862",
        "mean_motion": ".272386977156336",
        "equinox": "J2000",
        "orbit_class": {
            "orbit_class_type": "APO",
            "orbit_class_description": "Near-Earth asteroid orbits which cross the Earth’s orbit similar to that of 1862 Apollo",
            "orbit_class_range": "a (semi-major axis) > 1.0 AU; q (perihelion) < 1.017 AU"
        }
    },
    "is_sentry_object": false
}